ONEWEB-0392             
1 50472U 21132D   26056.15068556  .00000048  00000+0  90919-4 0  9995
2 50472  87.9137  28.0880 0002011  71.7522 288.3829 13.17648142203360
ONEWEB-0393             
1 50473U 21132E   26055.89601606  .00000021  00000+0  20758-4 0  9990
2 50473  87.9133  28.1621 0001897  77.4826 282.6518 13.17649455203328
ONEWEB-0394             
1 50474U 21132F   26055.34537561  .00000075  00000+0  15827-3 0  9998
2 50474  87.9241 357.8451 0001803  73.7071 286.4259 13.18685364206721
ONEWEB-0395             
1 50475U 21132G   26055.93449635  .00000237  00000+0  63283-3 0  9997
2 50475  87.8834  43.3971 0002102  83.7154 276.4213 13.11418577201007
ONEWEB-0396             
1 50476U 21132H   26056.09754299  .00000060  00000+0  12067-3 0  9999
2 50476  87.9241 357.7077 0001813  75.7054 284.4279 13.18685340206869
ONEWEB-0397             
1 50477U 21132J   26055.35361716  .00000095  00000+0  20742-3 0  9993
2 50477  87.9239 357.8552 0001638  73.9696 286.1616 13.18685139206740
ONEWEB-0398             
1 50478U 21132K   26055.97857001 -.00000377  00000+0 -10990-2 0  9997
2 50478  87.8845  43.3673 0002243  87.4500 272.6884 13.11413982200908
ONEWEB-0399             
1 50479U 21132L   26055.96501387  .00000182  00000+0  47825-3 0  9990
2 50479  87.8841  43.3804 0001714  69.1667 290.9644 13.11413660200892
ONEWEB-0400             
1 50480U 21132M   26055.78744175  .00000096  00000+0  21186-3 0  9992
2 50480  87.9245 357.7591 0002027  82.1549 277.9813 13.18685469206793
ONEWEB-0401             
1 50481U 21132N   26056.13547336  .00000070  00000+0  14390-3 0  9994
2 50481  87.9244 357.6860 0001640  80.2765 279.8552 13.18686622206849
ONEWEB-0402             
1 50482U 21132P   26056.09918928  .00000075  00000+0  15801-3 0  9992
2 50482  87.9242 357.6849 0001314  84.6835 275.4447 13.18686043206863
ONEWEB-0403             
1 50483U 21132Q   26055.59279760 -.00000034  00000+0 -11772-3 0  9991
2 50483  87.9240 357.8083 0001895  76.5838 283.5505 13.18684958206757
ONEWEB-0404             
1 50484U 21132R   26055.94637288  .00000566  00000+0  15621-2 0  9998
2 50484  87.8837  43.3919 0001987  75.8689 284.2660 13.11417702200985
ONEWEB-0405             
1 50485U 21132S   26055.83526842 -.00000023  00000+0 -91044-4 0  9995
2 50485  87.9241 357.7443 0001593  75.7747 284.3562 13.18684982207181
ONEWEB-0406             
1 50486U 21132T   26055.37011711  .00000073  00000+0  15198-3 0  9997
2 50486  87.9241 357.8622 0002008  66.2286 293.9057 13.18687098206755
ONEWEB-0407             
1 50487U 21132U   26055.81877419 -.00000022  00000+0 -87363-4 0  9992
2 50487  87.9241 357.7563 0001715  83.9324 276.2004 13.18685053206757
ONEWEB-0409             
1 50488U 21132V   26055.94468642  .00000513  00000+0  14115-2 0  9997
2 50488  87.8843  43.3722 0002024  77.7346 282.4008 13.11418978200872
