[{"OBJECT_NAME":"ONEWEB-0392","OBJECT_ID":"2021-132D","EPOCH":"2026-02-25T03:36:59.232384","MEAN_MOTION":13.17648142,"ECCENTRICITY":0.0002011,"INCLINATION":87.9137,"RA_OF_ASC_NODE":28.088,"ARG_OF_PERICENTER":71.7522,"MEAN_ANOMALY":288.3829,"EPHEMERIS_TYPE":0,"CLASSIFICATION_TYPE":"U","NORAD_CAT_ID":50472,"ELEMENT_SET_NO":999,"REV_AT_EPOCH":20336,"BSTAR":9.0919e-5,"MEAN_MOTION_DOT":4.8e-7,"MEAN_MOTION_DDOT":0},{"OBJECT_NAME":"ONEWEB-0393","OBJECT_ID":"2021-132E","EPOCH":"2026-02-24T21:30:15.787584","MEAN_MOTION":13.17649455,"ECCENTRICITY":0.0001897,"INCLINATION":87.9133,"RA_OF_ASC_NODE":28.1621,"ARG_OF_PERICENTER":77.4826,"MEAN_ANOMALY":282.6518,"EPHEMERIS_TYPE":0,"CLASSIFICATION_TYPE":"U","NORAD_CAT_ID":50473,"ELEMENT_SET_NO":999,"REV_AT_EPOCH":20332,"BSTAR":2.0758e-5,"MEAN_MOTION_DOT":2.1e-7,"MEAN_MOTION_DDOT":0},{"OBJECT_NAME":"ONEWEB-0394","OBJECT_ID":"2021-132F","EPOCH":"2026-02-24T08:17:20.452704","MEAN_MOTION":13.18685364,"ECCENTRICITY":0.00018035,"INCLINATION":87.9241,"RA_OF_ASC_NODE":357.8451,"ARG_OF_PERICENTER":73.7071,"MEAN_ANOMALY":286.4259,"EPHEMERIS_TYPE":0,"CLASSIFICATION_TYPE":"U","NORAD_CAT_ID":50474,"ELEMENT_SET_NO":999,"REV_AT_EPOCH":20672,"BSTAR":0.00015827464,"MEAN_MOTION_DOT":7.5e-7,"MEAN_MOTION_DDOT":0},{"OBJECT_NAME":"ONEWEB-0395","OBJECT_ID":"2021-132G","EPOCH":"2026-02-24T22:25:40.484640","MEAN_MOTION":13.11418577,"ECCENTRICITY":0.0002102,"INCLINATION":87.8834,"RA_OF_ASC_NODE":43.3971,"ARG_OF_PERICENTER":83.7154,"MEAN_ANOMALY":276.4213,"EPHEMERIS_TYPE":0,"CLASSIFICATION_TYPE":"U","NORAD_CAT_ID":50475,"ELEMENT_SET_NO":999,"REV_AT_EPOCH":20100,"BSTAR":0.00063283,"MEAN_MOTION_DOT":2.37e-6,"MEAN_MOTION_DDOT":0},{"OBJECT_NAME":"ONEWEB-0396","OBJECT_ID":"2021-132H","EPOCH":"2026-02-25T02:20:27.714336","MEAN_MOTION":13.1868534,"ECCENTRICITY":0.0001813,"INCLINATION":87.9241,"RA_OF_ASC_NODE":357.7077,"ARG_OF_PERICENTER":75.7054,"MEAN_ANOMALY":284.4279,"EPHEMERIS_TYPE":0,"CLASSIFICATION_TYPE":"U","NORAD_CAT_ID":50476,"ELEMENT_SET_NO":999,"REV_AT_EPOCH":20686,"BSTAR":0.00012067,"MEAN_MOTION_DOT":6.0e-7,"MEAN_MOTION_DDOT":0},{"OBJECT_NAME":"ONEWEB-0397","OBJECT_ID":"2021-132J","EPOCH":"2026-02-24T08:29:12.522624","MEAN_MOTION":13.18685139,"ECCENTRICITY":0.00016389,"INCLINATION":87.9239,"RA_OF_ASC_NODE":357.8552,"ARG_OF_PERICENTER":73.9696,"MEAN_ANOMALY":286.1616,"EPHEMERIS_TYPE":0,"CLASSIFICATION_TYPE":"U","NORAD_CAT_ID":50477,"ELEMENT_SET_NO":999,"REV_AT_EPOCH":20674,"BSTAR":0.00020742311,"MEAN_MOTION_DOT":9.5e-7,"MEAN_MOTION_DDOT":0},{"OBJECT_NAME":"ONEWEB-0398","OBJECT_ID":"2021-132K","EPOCH":"2026-02-24T23:29:08.448864","MEAN_MOTION":13.11413982,"ECCENTRICITY":0.0002243,"INCLINATION":87.8845,"RA_OF_ASC_NODE":43.3673,"ARG_OF_PERICENTER":87.45,"MEAN_ANOMALY":272.6884,"EPHEMERIS_TYPE":0,"CLASSIFICATION_TYPE":"U","NORAD_CAT_ID":50478,"ELEMENT_SET_NO":999,"REV_AT_EPOCH":20090,"BSTAR":-0.001099,"MEAN_MOTION_DOT":-3.77e-6,"MEAN_MOTION_DDOT":0},{"OBJECT_NAME":"ONEWEB-0399","OBJECT_ID":"2021-132L","EPOCH":"2026-02-24T23:09:37.198368","MEAN_MOTION":13.1141366,"ECCENTRICITY":0.0001714,"INCLINATION":87.8841,"RA_OF_ASC_NODE":43.3804,"ARG_OF_PERICENTER":69.1667,"MEAN_ANOMALY":290.9644,"EPHEMERIS_TYPE":0,"CLASSIFICATION_TYPE":"U","NORAD_CAT_ID":50479,"ELEMENT_SET_NO":999,"REV_AT_EPOCH":20089,"BSTAR":0.00047825,"MEAN_MOTION_DOT":1.82e-6,"MEAN_MOTION_DDOT":0},{"OBJECT_NAME":"ONEWEB-0400","OBJECT_ID":"2021-132M","EPOCH":"2026-02-24T18:53:54.967200","MEAN_MOTION":13.18685469,"ECCENTRICITY":0.00020273,"INCLINATION":87.9245,"RA_OF_ASC_NODE":357.7591,"ARG_OF_PERICENTER":82.1549,"MEAN_ANOMALY":277.9813,"EPHEMERIS_TYPE":0,"CLASSIFICATION_TYPE":"U","NORAD_CAT_ID":50480,"ELEMENT_SET_NO":999,"REV_AT_EPOCH":20679,"BSTAR":0.00021186393,"MEAN_MOTION_DOT":9.6e-7,"MEAN_MOTION_DDOT":0},{"OBJECT_NAME":"ONEWEB-0401","OBJECT_ID":"2021-132N","EPOCH":"2026-02-25T03:15:04.898304","MEAN_MOTION":13.18686622,"ECCENTRICITY":0.000164,"INCLINATION":87.9244,"RA_OF_ASC_NODE":357.686,"ARG_OF_PERICENTER":80.2765,"MEAN_ANOMALY":279.8552,"EPHEMERIS_TYPE":0,"CLASSIFICATION_TYPE":"U","NORAD_CAT_ID":50481,"ELEMENT_SET_NO":999,"REV_AT_EPOCH":20684,"BSTAR":0.0001439,"MEAN_MOTION_DOT":7.0e-7,"MEAN_MOTION_DDOT":0},{"OBJECT_NAME":"ONEWEB-0402","OBJECT_ID":"2021-132P","EPOCH":"2026-02-25T02:22:49.953792","MEAN_MOTION":13.18686043,"ECCENTRICITY":0.0001314,"INCLINATION":87.9242,"RA_OF_ASC_NODE":357.6849,"ARG_OF_PERICENTER":84.6835,"MEAN_ANOMALY":275.4447,"EPHEMERIS_TYPE":0,"CLASSIFICATION_TYPE":"U","NORAD_CAT_ID":50482,"ELEMENT_SET_NO":999,"REV_AT_EPOCH":20686,"BSTAR":0.00015801,"MEAN_MOTION_DOT":7.5e-7,"MEAN_MOTION_DDOT":0},{"OBJECT_NAME":"ONEWEB-0403","OBJECT_ID":"2021-132Q","EPOCH":"2026-02-24T14:13:37.712640","MEAN_MOTION":13.18684958,"ECCENTRICITY":0.0001895,"INCLINATION":87.924,"RA_OF_ASC_NODE":357.8083,"ARG_OF_PERICENTER":76.5838,"MEAN_ANOMALY":283.5505,"EPHEMERIS_TYPE":0,"CLASSIFICATION_TYPE":"U","NORAD_CAT_ID":50483,"ELEMENT_SET_NO":999,"REV_AT_EPOCH":20675,"BSTAR":-0.00011772,"MEAN_MOTION_DOT":-3.4e-7,"MEAN_MOTION_DDOT":0},{"OBJECT_NAME":"ONEWEB-0404","OBJECT_ID":"2021-132R","EPOCH":"2026-02-24T22:42:46.616832","MEAN_MOTION":13.11417702,"ECCENTRICITY":0.0001987,"INCLINATION":87.8837,"RA_OF_ASC_NODE":43.3919,"ARG_OF_PERICENTER":75.8689,"MEAN_ANOMALY":284.266,"EPHEMERIS_TYPE":0,"CLASSIFICATION_TYPE":"U","NORAD_CAT_ID":50484,"ELEMENT_SET_NO":999,"REV_AT_EPOCH":20098,"BSTAR":0.0015621,"MEAN_MOTION_DOT":5.66e-6,"MEAN_MOTION_DDOT":0},{"OBJECT_NAME":"ONEWEB-0405","OBJECT_ID":"2021-132S","EPOCH":"2026-02-24T20:02:47.191488","MEAN_MOTION":13.18684982,"ECCENTRICITY":0.00015938,"INCLINATION":87.9241,"RA_OF_ASC_NODE":357.7443,"ARG_OF_PERICENTER":75.7747,"MEAN_ANOMALY":284.3562,"EPHEMERIS_TYPE":0,"CLASSIFICATION_TYPE":"U","NORAD_CAT_ID":50485,"ELEMENT_SET_NO":999,"REV_AT_EPOCH":20718,"BSTAR":-9.1044005e-5,"MEAN_MOTION_DOT":-2.3e-7,"MEAN_MOTION_DDOT":0},{"OBJECT_NAME":"ONEWEB-0406","OBJECT_ID":"2021-132T","EPOCH":"2026-02-24T08:52:58.118304","MEAN_MOTION":13.18687098,"ECCENTRICITY":0.00020089,"INCLINATION":87.9241,"RA_OF_ASC_NODE":357.8622,"ARG_OF_PERICENTER":66.2286,"MEAN_ANOMALY":293.9057,"EPHEMERIS_TYPE":0,"CLASSIFICATION_TYPE":"U","NORAD_CAT_ID":50486,"ELEMENT_SET_NO":999,"REV_AT_EPOCH":20675,"BSTAR":0.00015197946,"MEAN_MOTION_DOT":7.3e-7,"MEAN_MOTION_DDOT":0},{"OBJECT_NAME":"ONEWEB-0407","OBJECT_ID":"2021-132U","EPOCH":"2026-02-24T19:39:02.090016","MEAN_MOTION":13.18685053,"ECCENTRICITY":0.00017158,"INCLINATION":87.9241,"RA_OF_ASC_NODE":357.7563,"ARG_OF_PERICENTER":83.9324,"MEAN_ANOMALY":276.2004,"EPHEMERIS_TYPE":0,"CLASSIFICATION_TYPE":"U","NORAD_CAT_ID":50487,"ELEMENT_SET_NO":999,"REV_AT_EPOCH":20675,"BSTAR":-8.7362834e-5,"MEAN_MOTION_DOT":-2.2e-7,"MEAN_MOTION_DDOT":0},{"OBJECT_NAME":"ONEWEB-0409","OBJECT_ID":"2021-132V","EPOCH":"2026-02-24T22:40:20.906688","MEAN_MOTION":13.11418978,"ECCENTRICITY":0.0002024,"INCLINATION":87.8843,"RA_OF_ASC_NODE":43.3722,"ARG_OF_PERICENTER":77.7346,"MEAN_ANOMALY":282.4008,"EPHEMERIS_TYPE":0,"CLASSIFICATION_TYPE":"U","NORAD_CAT_ID":50488,"ELEMENT_SET_NO":999,"REV_AT_EPOCH":20087,"BSTAR":0.0014115,"MEAN_MOTION_DOT":5.13e-6,"MEAN_MOTION_DDOT":0}]
